CYGFM03                 
1 41891U 16078H   26108.16697372  .00019307  00000+0  25823-3 0  9995
2 41891  34.9408 270.1415 0006724 332.8982  27.1390 15.57035370519606
FENGYUN 3D              
1 43010U 17072A   26108.24350066  .00000280  00000+0  15399-3 0  9997
2 43010  99.0086  81.5973 0000954 173.9711 186.1476 14.19727403436488
NOAA 20 (JPSS-1)        
1 43013U 17073A   26108.22946641  .00000046  00000+0  42767-4 0  9999
2 43013  98.7738  48.2351 0002161  83.8397 276.3026 14.19545941435962
GOES 17                 
1 43226U 18022A   26108.19558565 -.00000176  00000+0  00000+0 0  9994
2 43226   0.7835  86.5273 0000835 259.4790 201.2334  1.00270703 29821
FENGYUN 2H              
1 43491U 18050A   26108.09608736 -.00000121  00000+0  00000+0 0  9994
2 43491   2.8756  79.7567 0001681 153.2839  86.9373  1.00275015 28837
METOP-C                 
1 43689U 18087A   26108.23851641  .00000069  00000+0  51455-4 0  9999
2 43689  98.6691 168.9246 0001239  47.9089 312.2194 14.21509663386319
GEO-KOMPSAT-2A          
1 43823U 18100A   26107.96326652  .00000000  00000+0  00000+0 0  9993
2 43823   0.0223  57.4459 0001748   4.3834 259.2844  1.00271271 27021
METEOR-M2 2             
1 44387U 19038A   26108.25408076  .00000048  00000+0  40600-4 0  9991
2 44387  98.9122  94.6642 0001395 140.4439 219.6842 14.24348689352767
ARKTIKA-M 1             
1 47719U 21016A   26107.18245314 -.00000060  00000+0  00000+0 0  9997
2 47719  63.2211  66.4220 7264019 269.6490  15.0169  2.00611307 37563
FENGYUN 3E              
1 49008U 21062A   26108.30468072 -.00000025  00000+0  88748-5 0  9996
2 49008  98.7505 112.3786 0000420 252.6699 107.4431 14.19898582248087
GOES 18                 
1 51850U 22021A   26108.19591822  .00000102  00000+0  00000+0 0  9991
2 51850   0.0064  48.0624 0000449  46.4793  45.3191  1.00273108  5993
NOAA 21 (JPSS-2)        
1 54234U 22150A   26108.19325965  .00000005  00000+0  23249-4 0  9993
2 54234  98.7027  48.0013 0002197  38.0666 322.0665 14.19554055178039
METEOSAT-12 (MTG-I1)    
1 54743U 22170C   26108.22295833 -.00000002  00000+0  00000+0 0  9997
2 54743   0.7139  20.7954 0001120 323.1446 302.4363  1.00267539 12376
TIANMU-1 03             
1 55973U 23039A   26108.25965919  .00010748  00000+0  22561-3 0  9997
2 55973  97.5209 279.9695 0001958 331.9176  28.1966 15.45555385171572
TIANMU-1 04             
1 55974U 23039B   26108.27107666  .00013582  00000+0  27928-3 0  9998
2 55974  97.5146 279.1344 0002565 319.9185  40.1875 15.46096855171584
TIANMU-1 05             
1 55975U 23039C   26108.30254487  .00011032  00000+0  23197-3 0  9999
2 55975  97.5191 279.6508 0002230   2.8284 357.2977 15.45495517171569
TIANMU-1 06             
1 55976U 23039D   26108.27125959  .00011144  00000+0  23012-3 0  9997
2 55976  97.5199 280.1956 0002374 351.9810   8.1400 15.46023758171584
FENGYUN 3G              
1 56232U 23055A   26108.01386236  .00018654  00000+0  31077-3 0  9993
2 56232  49.9929 296.2832 0005733 286.7398  73.2940 15.51984690170657
METEOR-M2 3             
1 57166U 23091A   26108.30516623 -.00000008  00000+0  15469-4 0  9990
2 57166  98.6135 164.4932 0003733   2.5894 357.5304 14.24041582145998
TIANMU-1 07             
1 57399U 23101A   26107.64825512  .00004317  00000+0  15401-3 0  9997
2 57399  97.2649 159.7182 0003133  50.5270 309.6248 15.29397698152395
TIANMU-1 08             
1 57400U 23101B   26108.26996811  .00000150  00000+0  78368-5 0  9994
2 57400  97.2637 160.1032 0003080 357.0902   3.0320 15.29190814152480
TIANMU-1 09             
1 57401U 23101C   26108.25388307  .00004387  00000+0  15696-3 0  9998
2 57401  97.2593 159.5360 0003071  37.2933 322.8521 15.29297226152489
TIANMU-1 10             
1 57402U 23101D   26108.28660505  .00004323  00000+0  15500-3 0  9999
2 57402  97.2672 160.5558 0003780  11.7280 348.4048 15.29233200152488
FENGYUN 3F              
1 57490U 23111A   26108.28988762  .00000027  00000+0  33084-4 0  9990
2 57490  98.6861 179.4064 0000789 104.6205 255.5060 14.19928236140360
ARKTIKA-M 2             
1 58584U 23198A   26105.45009400  .00000213  00000+0  00000+0 0  9993
2 58584  63.2109 161.3400 6886040 267.6312  18.8487  2.00607933 17067
TIANMU-1 11             
1 58645U 23205A   26108.27722832  .00004108  00000+0  16068-3 0  9996
2 58645  97.3492 130.7902 0008147 204.6069 155.4782 15.26372481128386
TIANMU-1 12             
1 58646U 23205B   26108.31134788  .00003801  00000+0  14917-3 0  9999
2 58646  97.3481 130.5929 0007047 183.8137 176.3049 15.26313517128376
TIANMU-1 13             
1 58647U 23205C   26108.34091819  .00003905  00000+0  15289-3 0  9998
2 58647  97.3508 130.8783 0007952 166.6003 193.5448 15.26366138128375
TIANMU-1 14             
1 58648U 23205D   26108.32616083  .00003871  00000+0  15170-3 0  9994
2 58648  97.3443 130.0969 0008506 171.7489 188.3891 15.26338528128379
TIANMU-1 19             
1 58660U 23208A   26108.29124810  .00006935  00000+0  23677-3 0  9994
2 58660  97.4435 224.3537 0005787 155.8163 204.3351 15.30624008128166
TIANMU-1 20             
1 58661U 23208B   26108.31024704  .00006934  00000+0  22813-3 0  9999
2 58661  97.4376 224.9465 0007691 167.1712 192.9726 15.31810922128250
TIANMU-1 21             
1 58662U 23208C   26108.32026380  .00008619  00000+0  26458-3 0  9994
2 58662  97.4434 227.3868 0007749 161.9027 198.2493 15.33956922128382
TIANMU-1 22             
1 58663U 23208D   26108.25421465  .00006492  00000+0  22493-3 0  9992
2 58663  97.4430 224.3000 0004008 172.0939 188.0366 15.30178703128166
TIANMU-1 15             
1 58700U 24004A   26108.25782291  .00004528  00000+0  17692-3 0  9999
2 58700  97.4674 294.4613 0006798 187.9602 172.1529 15.26373631126633
TIANMU-1 16             
1 58701U 24004B   26108.30592100  .00004177  00000+0  16327-3 0  9998
2 58701  97.4619 293.8049 0005209 187.1534 172.9631 15.26410488126646
TIANMU-1 17             
1 58702U 24004C   26108.28915969  .00004578  00000+0  17948-3 0  9993
2 58702  97.4648 294.2556 0004978 192.7542 167.3571 15.26261176126638
TIANMU-1 18             
1 58703U 24004D   26108.27410845  .00003908  00000+0  15314-3 0  9997
2 58703  97.4666 294.4620 0003898 181.8853 178.2371 15.26375015126634
INSAT-3DS               
1 58990U 24033A   26108.09669403 -.00000150  00000+0  00000+0 0  9992
2 58990   0.0705  84.5800 0001820 295.7417 302.7979  1.00271449 46461
METEOR-M2 4             
1 59051U 24039A   26108.25191455 -.00000005  00000+0  17614-4 0  9995
2 59051  98.6966  68.3198 0006920 352.9449   7.1631 14.22423018110742
GOES 19                 
1 60133U 24119A   26108.18447596 -.00000243  00000+0  00000+0 0  9999
2 60133   0.0159  54.5175 0000413  25.6501 117.3610  1.00271024  6365
FENGYUN 3H              
1 65815U 25219A   26108.28576365  .00000024  00000+0  31818-4 0  9993
2 65815  98.6734  50.2319 0000702  96.2881 263.8375 14.19942393 28882
OSCAR 7 (AO-7)          
1 07530U 74089B   26108.28342580 -.00000046  00000+0  73395-6 0  9995
2 07530 101.9940 120.8992 0011900 244.6506 126.2217 12.53697173353017
PHASE 3B (AO-10)        
1 14129U 83058B   26107.66943027 -.00000005  00000+0  00000+0 0  9998
2 14129  25.8982 229.6657 6032508  98.9624 329.6785  2.05870713294246
UOSAT 2 (UO-11)         
1 14781U 84021B   26108.14579266  .00000783  00000+0  85586-4 0  9996
2 14781  97.8012  74.4162 0008398  32.9222 327.2517 14.90636588248182
LUSAT (LO-19)           
1 20442U 90005G   26108.04100620  .00000077  00000+0  44113-4 0  9996
2 20442  98.8898 128.1775 0012044  27.7831 332.3994 14.34103865893776
EYESAT A (AO-27)        
1 22825U 93061C   26108.14466676  .00000069  00000+0  43174-4 0  9992
2 22825  98.6914 175.5698 0007227 277.3098  82.7263 14.30925710698411
ITAMSAT (IO-26)         
1 22826U 93061D   26108.14193445  .00000071  00000+0  43686-4 0  9995
2 22826  98.6861 175.4784 0007765 258.2154 101.8158 14.31350991698720
RADIO ROSTO (RS15)      
1 23439U 94085A   26108.25085186 -.00000051  00000+0 -25479-3 0  9996
2 23439  64.8198  40.1478 0154183  14.7640 345.7713 11.27583804289140
JAS-2 (FO-29)           
1 24278U 96046B   26108.12698131 -.00000019  00000+0  19133-4 0  9997
2 24278  98.5314 325.1998 0348848 252.2517 104.0269 13.53271303465040
TECHSAT 1B (GO-32)      
1 25397U 98043D   26108.21710710  .00000019  00000+0  28349-4 0  9995
2 25397  99.0060  99.4691 0002041  55.8767 304.2605 14.24416249442798
ISS (ZARYA)             
1 25544U 98067A   26108.07046201  .00007259  00000+0  14069-3 0  9992
2 25544  51.6329 237.6272 0006576 320.1418  39.9086 15.48808425562430
PCSAT (NO-44)           
1 26931U 01043C   26108.23146766  .00000081  00000+0  61059-4 0  9994
2 26931  67.0521  39.3412 0006630 264.2557  95.7789 14.31932051281861
SAUDISAT 1C (SO-50)     
1 27607U 02058C   26108.00292272  .00000560  00000+0  84087-4 0  9999
2 27607  64.5521 315.1755 0075545 273.4180  85.8287 14.82912319255533
CUTE-1 (CO-55)          
1 27844U 03031E   26108.25535867  .00000198  00000+0  10489-3 0  9992
2 27844  98.6763 117.5643 0009610   7.2916 352.8401 14.24297506183144
CUBESAT XI-IV (CO-57)   
1 27848U 03031J   26108.28415307  .00000161  00000+0  89954-4 0  9999
2 27848  98.6795 117.3532 0009910  25.0506 335.1152 14.23587918182856
MOZHAETS 4 (RS22)       
1 27939U 03042A   26108.32670201  .00000118  00000+0  26532-4 0  9998
2 27939  98.3458 290.9989 0012551  97.6113  24.3560 14.73355429206737
CUBESAT XI-V            
1 28895U 05043F   26107.85905874  .00000934  00000+0  15529-3 0  9996
2 28895  98.2908 262.2443 0014783  41.4821 318.7505 14.72469771 92879
CUTE-1.7+APD II (CO-65) 
1 32785U 08021C   26108.24387746  .00003135  00000+0  20314-3 0  9998
2 32785  97.8249  88.4561 0007592 224.8101 135.2514 15.08872869976152
SEEDS II (CO-66)        
1 32791U 08021J   26108.22872766  .00012112  00000+0  41088-3 0  9990
2 32791  97.7527 103.3650 0004417 130.7985 229.3639 15.30679504978118
